[{"OBJECT_NAME":"ORBCOMM FM04","OBJECT_ID":"1998-007C","EPOCH":"2026-03-09T14:44:15.821664","MEAN_MOTION":14.35529153,"ECCENTRICITY":0.0038795,"INCLINATION":107.9614,"RA_OF_ASC_NODE":324.5497,"ARG_OF_PERICENTER":142.9338,"MEAN_ANOMALY":217.4493,"EPHEMERIS_TYPE":0,"CLASSIFICATION_TYPE":"U","NORAD_CAT_ID":25159,"ELEMENT_SET_NO":999,"REV_AT_EPOCH":46230,"BSTAR":0.0004125,"MEAN_MOTION_DOT":1.067e-5,"MEAN_MOTION_DDOT":0},{"OBJECT_NAME":"SL-16 DEB","OBJECT_ID":"1993-016AJ","EPOCH":"2026-03-09T12:54:58.772736","MEAN_MOTION":14.4333614,"ECCENTRICITY":0.00063504,"INCLINATION":70.9944,"RA_OF_ASC_NODE":122.2782,"ARG_OF_PERICENTER":3.4885,"MEAN_ANOMALY":120.4444,"EPHEMERIS_TYPE":0,"CLASSIFICATION_TYPE":"U","NORAD_CAT_ID":26968,"ELEMENT_SET_NO":999,"REV_AT_EPOCH":71492,"BSTAR":0.00069144268,"MEAN_MOTION_DOT":2.283e-5,"MEAN_MOTION_DDOT":0}]
